SKYSAT-C1               
1 41601U 16040C   26192.63835800  .00005514  00000+0  15589-3 0  9991
2 41601  96.9557 223.0369 0000645 355.4804   4.6435 15.36708815561620
LAPAN-A3                
1 41603U 16040E   26192.92699763  .00002043  00000+0  65843-4 0  9994
2 41603  97.1497 188.2634 0008277 290.4170  69.6184 15.33265128558606
GAOFEN-3                
1 41727U 16049A   26192.99066166 -.00000134  00000+0 -27495-4 0  9994
2 41727  98.4019 200.4019 0001774  88.4213 271.7180 14.42218062522224
SKYSAT-C4               
1 41771U 16058B   26192.62237898  .00010529  00000+0  19370-3 0  9994
2 41771  96.9168 213.3821 0003367 122.9938 237.1639 15.49356628549259
SKYSAT-C5               
1 41772U 16058C   26192.88383224  .00004541  00000+0  14168-3 0  9995
2 41772  97.0460 232.4196 0002212 170.0911 190.0377 15.33689978547532
SKYSAT-C2               
1 41773U 16058D   26192.58892983  .00007511  00000+0  17446-3 0  9992
2 41773  97.0160 213.7722 0001943   8.4873 351.6408 15.42624716548819
SKYSAT-C3               
1 41774U 16058E   26192.62742276  .00015432  00000+0  24355-3 0  9995
2 41774  96.9000 222.5485 0002310 132.6735 227.4714 15.53593180549904
ALSAT-1B                
1 41785U 16059C   26192.97870315  .00000040  00000+0  13744-4 0  9992
2 41785  97.7758 200.6724 0010099 138.9874 221.2096 14.72292271524224
PATHFINDER 1            
1 41787U 16059E   26192.95268131  .00000313  00000+0  62846-4 0  9999
2 41787  97.8175 191.1121 0029666 125.5852 234.8124 14.67690926523340
SCATSAT 1               
1 41790U 16059H   26192.76268830  .00000698  00000+0  98367-4 0  9991
2 41790  98.1179 256.7812 0054977 167.5123 192.7465 14.79581916105221
GOKTURK 1A              
1 41875U 16073A   26192.93943299  .00000188  00000+0  45998-4 0  9995
2 41875  98.1225  87.2230 0001457  79.5265 280.6101 14.62791721512441
RESOURCESAT-2A          
1 41877U 16074A   26192.98616720 -.00000170  00000+0 -57537-4 0  9994
2 41877  98.7522 266.2868 0002599  35.9056 324.2296 14.21607068497826
CARTOSAT-2D             
1 41948U 17008A   26192.98911946  .00001789  00000+0  88012-4 0  9996
2 41948  97.4099 251.8298 0005708 147.4843 212.6745 15.19266943521340
SENTINEL-2B             
1 42063U 17013A   26192.96274684 -.00000001  00000+0  16391-4 0  9998
2 42063  98.5688 267.3866 0001224  90.1609 269.9714 14.30814206488189
CARTOSAT-2E             
1 42767U 17036C   26192.94095999  .00001926  00000+0  94648-4 0  9999
2 42767  97.4272 252.3334 0002922 198.4154 161.6975 15.19238530501905
FORMOSAT-5              
1 42920U 17049A   26192.87960835  .00000040  00000+0  21110-4 0  9996
2 42920  98.2247 267.6401 0011557  13.9010 346.2501 14.50907260470253
SENTINEL-5P             
1 42969U 17064A   26192.80146014  .00000008  00000+0  24611-4 0  9997
2 42969  98.7929 134.7584 0001112  92.2595 267.8708 14.19522945453052
SKYSAT-C11              
1 42987U 17068A   26192.71211125  .00018813  00000+0  24139-3 0  9994
2 42987  97.4366 342.6375 0000957 163.5740 196.5548 15.59189206487063
SKYSAT-C10              
1 42988U 17068B   26192.93609118  .00006459  00000+0  19221-3 0  9991
2 42988  97.4526 330.0351 0001403 108.5337 251.6059 15.35074302486158
SKYSAT-C9               
1 42989U 17068C   26192.18672867  .00008274  00000+0  19496-3 0  9991
2 42989  97.4444 330.4450 0008945  57.4451 302.7659 15.42149851486456
SKYSAT-C8               
1 42990U 17068D   26192.86941280  .00006258  00000+0  17273-3 0  9997
2 42990  97.4545 329.8628 0001248 101.2013 258.9372 15.37449279486107
SKYSAT-C7               
1 42991U 17068E   26192.86379282  .00006223  00000+0  17196-3 0  9991
2 42991  97.4553 330.8482 0005989  32.7055 327.4559 15.37400500486166
SKYSAT-C6               
1 42992U 17068F   26192.86656048  .00005678  00000+0  17431-3 0  9995
2 42992  97.4592 330.7193 0005162  97.3545 262.8285 15.34133330486105
CARTOSAT-2F             
1 43111U 18004A   26192.90768358  .00002035  00000+0  99816-4 0  9995
2 43111  97.4784 252.2990 0002450 143.5676 216.5725 15.19253104471082
GAOFEN-1 02             
1 43259U 18031A   26192.96715384  .00000032  00000+0  11973-4 0  9998
2 43259  98.0520 255.4232 0001626 306.8200  53.2861 14.76468458446356
GAOFEN-1 03             
1 43260U 18031B   26192.94523186  .00000354  00000+0  58228-4 0  9996
2 43260  98.0505 255.2572 0002669  24.5207 335.6129 14.76459831446343
GAOFEN-1 04             
1 43262U 18031D   26192.98872426 -.00000117  00000+0 -94317-5 0  9995
2 43262  98.0521 255.4942 0001437  57.2908 302.8440 14.76466545446341
SENTINEL-3B             
1 43437U 18039A   26192.17410468  .00000038  00000+0  33847-4 0  9992
2 43437  98.6238 259.3610 0001054 120.7417 239.3868 14.26741288427541
GAOFEN-5 01             
1 43461U 18043A   26192.86043952  .00000153  00000+0  41589-4 0  9990
2 43461  98.4587 164.9673 0002283  38.6009 321.5354 14.60622043435292
GAOFEN-6                
1 43484U 18048A   26192.94331469  .00000479  00000+0  76429-4 0  9994
2 43484  98.0964 255.6373 0012156  90.9753 269.2849 14.76381500437043
