OBJECT_NAME,OBJECT_ID,EPOCH,MEAN_MOTION,ECCENTRICITY,INCLINATION,RA_OF_ASC_NODE,ARG_OF_PERICENTER,MEAN_ANOMALY,EPHEMERIS_TYPE,CLASSIFICATION_TYPE,NORAD_CAT_ID,ELEMENT_SET_NO,REV_AT_EPOCH,BSTAR,MEAN_MOTION_DOT,MEAN_MOTION_DDOT
SKYSAT-C1,2016-040C,2026-07-11T15:19:14.131200,15.36708815,.0000645,96.9557,223.0369,355.4804,4.6435,0,U,41601,999,56162,.15588995E-3,.5514E-4,0
LAPAN-A3,2016-040E,2026-07-11T22:14:52.595232,15.33265128,.00082776,97.1497,188.2634,290.4170,69.6184,0,U,41603,999,55860,.6584297E-4,.2043E-4,0
GAOFEN-3,2016-049A,2026-07-11T23:46:33.167424,14.42218062,.00017748,98.4019,200.4019,88.4213,271.7180,0,U,41727,999,52222,-.27495492E-4,-.134E-5,0
SKYSAT-C4,2016-058B,2026-07-11T14:56:13.543872,15.49356628,.00033674,96.9168,213.3821,122.9938,237.1639,0,U,41771,999,54925,.19370337E-3,.10529E-3,0
SKYSAT-C5,2016-058C,2026-07-11T21:12:43.105536,15.33689978,.00022129,97.0460,232.4196,170.0911,190.0377,0,U,41772,999,54753,.1416755E-3,.4541E-4,0
SKYSAT-C2,2016-058D,2026-07-11T14:08:03.537312,15.42624716,.00019439,97.0160,213.7722,8.4873,351.6408,0,U,41773,999,54881,.17446035E-3,.7511E-4,0
SKYSAT-C3,2016-058E,2026-07-11T15:03:29.326464,15.53593180,.00023109,96.9000,222.5485,132.6735,227.4714,0,U,41774,999,54990,.24354838E-3,.15432E-3,0
ALSAT-1B,2016-059C,2026-07-11T23:29:19.952160,14.72292271,.00100992,97.7758,200.6724,138.9874,221.2096,0,U,41785,999,52422,.13743626E-4,.4E-6,0
PATHFINDER 1,2016-059E,2026-07-11T22:51:51.665184,14.67690926,.00296662,97.8175,191.1121,125.5852,234.8124,0,U,41787,999,52334,.62846108E-4,.313E-5,0
SCATSAT 1,2016-059H,2026-07-11T18:18:16.269120,14.79581916,.00549777,98.1179,256.7812,167.5123,192.7465,0,U,41790,999,10522,.98366617E-4,.698E-5,0
GOKTURK 1A,2016-073A,2026-07-11T22:32:47.010336,14.62791721,.00014579,98.1225,87.2230,79.5265,280.6101,0,U,41875,999,51244,.459982E-4,.188E-5,0
RESOURCESAT-2A,2016-074A,2026-07-11T23:40:04.846080,14.21607068,.00025992,98.7522,266.2868,35.9056,324.2296,0,U,41877,999,49782,-.57536672E-4,-.17E-5,0
CARTOSAT-2D,2017-008A,2026-07-11T23:44:19.921344,15.19266943,.00057089,97.4099,251.8298,147.4843,212.6745,0,U,41948,999,52134,.88011887E-4,.1789E-4,0
SENTINEL-2B,2017-013A,2026-07-11T23:06:21.326976,14.30814206,.00012248,98.5688,267.3866,90.1609,269.9714,0,U,42063,999,48818,.16391097E-4,-.1E-7,0
CARTOSAT-2E,2017-036C,2026-07-11T22:34:58.943136,15.19238530,.00029223,97.4272,252.3334,198.4154,161.6975,0,U,42767,999,50190,.9464833E-4,.1926E-4,0
FORMOSAT-5,2017-049A,2026-07-11T21:06:38.161440,14.50907260,.00115577,98.2247,267.6401,13.9010,346.2501,0,U,42920,999,47025,.21109974E-4,.4E-6,0
SENTINEL-5P,2017-064A,2026-07-11T19:14:06.156096,14.19522945,.00011121,98.7929,134.7584,92.2595,267.8708,0,U,42969,999,45305,.24611138E-4,.8E-7,0
SKYSAT-C11,2017-068A,2026-07-11T17:05:26.412000,15.59189206,.00009576,97.4366,342.6375,163.5740,196.5548,0,U,42987,999,48706,.24138872E-3,.18813E-3,0
SKYSAT-C10,2017-068B,2026-07-11T22:27:58.277952,15.35074302,.00014034,97.4526,330.0351,108.5337,251.6059,0,U,42988,999,48615,.19221202E-3,.6459E-4,0
SKYSAT-C9,2017-068C,2026-07-11T04:28:53.357088,15.42149851,.00089454,97.4444,330.4450,57.4451,302.7659,0,U,42989,999,48645,.19496411E-3,.8274E-4,0
SKYSAT-C8,2017-068D,2026-07-11T20:51:57.265920,15.37449279,.00012484,97.4545,329.8628,101.2013,258.9372,0,U,42990,999,48610,.17273211E-3,.6258E-4,0
SKYSAT-C7,2017-068E,2026-07-11T20:43:51.699648,15.37400500,.0005989,97.4553,330.8482,32.7055,327.4559,0,U,42991,999,48616,.17196351E-3,.6223E-4,0
SKYSAT-C6,2017-068F,2026-07-11T20:47:50.825472,15.34133330,.00051622,97.4592,330.7193,97.3545,262.8285,0,U,42992,999,48610,.17430622E-3,.5678E-4,0
CARTOSAT-2F,2018-004A,2026-07-11T21:47:03.861312,15.19253104,.00024503,97.4784,252.2990,143.5676,216.5725,0,U,43111,999,47108,.99816288E-4,.2035E-4,0
GAOFEN-1 02,2018-031A,2026-07-11T23:12:42.091776,14.76468458,.0001626,98.0520,255.4232,306.8200,53.2861,0,U,43259,999,44635,.11972658E-4,.32E-6,0
GAOFEN-1 03,2018-031B,2026-07-11T22:41:08.032704,14.76459831,.00026693,98.0505,255.2572,24.5207,335.6129,0,U,43260,999,44634,.58228137E-4,.354E-5,0
GAOFEN-1 04,2018-031D,2026-07-11T23:43:45.776064,14.76466545,.00014371,98.0521,255.4942,57.2908,302.8440,0,U,43262,999,44634,-.9431707E-5,-.117E-5,0
SENTINEL-3B,2018-039A,2026-07-11T04:10:42.644352,14.26741288,.00010549,98.6238,259.3610,120.7417,239.3868,0,U,43437,999,42754,.3384739E-4,.38E-6,0
GAOFEN-5 01,2018-043A,2026-07-11T20:39:01.974528,14.60622043,.00022834,98.4587,164.9673,38.6009,321.5354,0,U,43461,999,43529,.41589373E-4,.153E-5,0
GAOFEN-6,2018-048A,2026-07-11T22:38:22.389216,14.76381500,.00121566,98.0964,255.6373,90.9753,269.2849,0,U,43484,999,43704,.76429485E-4,.479E-5,0
